IRIDIUM 135             
1 43070U 17083A   26188.73327663  .00000054  00000+0  12348-4 0  9995
2 43070  86.3982 313.4261 0002181  93.4057 266.7388 14.34218166447092
IRIDIUM 138             
1 43071U 17083B   26189.31679577  .00000144  00000+0  44376-4 0  9991
2 43071  86.3997 312.8805 0002055  90.3632 269.7799 14.34216677447163
IRIDIUM 116             
1 43072U 17083C   26189.28508010  .00000211  00000+0  68201-4 0  9999
2 43072  86.3981 313.1811 0002364 100.5613 259.5850 14.34219419447199
IRIDIUM 130             
1 43073U 17083D   26188.90452617  .00000201  00000+0  64867-4 0  9992
2 43073  86.3984 313.6189 0002005 107.0486 253.0930 14.34215914447080
IRIDIUM 151             
1 43074U 17083E   26189.29776765  .00000360  00000+0  12141-3 0  9992
2 43074  86.3981 313.2340 0002237  94.3250 265.8202 14.34216405447165
IRIDIUM 134             
1 43075U 17083F   26189.26605502 -.00000087  00000+0 -38261-4 0  9990
2 43075  86.3982 313.2557 0002058  95.0009 265.1421 14.34217007447129
IRIDIUM 137             
1 43076U 17083G   26189.34851047  .00000206  00000+0  66582-4 0  9995
2 43076  86.3985 313.3144 0002634  96.5299 263.6197 14.34216831447209
IRIDIUM 141             
1 43077U 17083H   26189.41193365  .00000047  00000+0  98548-5 0  9997
2 43077  86.3981 313.1172 0002184  92.0440 268.1006 14.34218180447213
IRIDIUM 153             
1 43078U 17083J   26189.50365033  .00000209  00000+0  67552-4 0  9991
2 43078  86.3963 281.5593 0002102  94.1658 265.9778 14.34217206448336
IRIDIUM 131             
1 43079U 17083K   26188.77133256  .00000001  00000+0 -68207-5 0  9990
2 43079  86.3984 313.5723 0002128  93.1304 267.0135 14.34217670447059
IRIDIUM 144             
1 43249U 18030A   26189.23091882  .00000056  00000+0  13041-4 0  9996
2 43249  86.3961 281.6018 0002362  97.5890 262.5574 14.34218005433159
IRIDIUM 149             
1 43250U 18030B   26189.51633585  .00000098  00000+0  28066-4 0  9990
2 43250  86.3960 281.4494 0002237  94.0136 266.1316 14.34216761433210
IRIDIUM 157             
1 43251U 18030C   26189.53536452  .00000181  00000+0  57646-4 0  9997
2 43251  86.3963 281.4949 0002243  93.9113 266.2340 14.34216434433191
IRIDIUM 140             
1 43252U 18030D   26188.71716540  .00000138  00000+0  42107-4 0  9993
2 43252  86.3962 281.8495 0002222  95.8702 264.2747 14.34219440433136
IRIDIUM 145             
1 43253U 18030E   26189.26262768  .00000098  00000+0  28031-4 0  9998
2 43253  86.3962 281.5932 0002378 101.0421 259.1042 14.34215909433148
IRIDIUM 146             
1 43254U 18030F   26189.52267671  .00000133  00000+0  40440-4 0  9994
2 43254  86.3960 281.4971 0002310  97.8920 262.2538 14.34217229433198
IRIDIUM 148             
1 43255U 18030G   26188.72351229  .00000162  00000+0  50726-4 0  9999
2 43255  86.3961 281.8745 0002323  92.9159 267.2303 14.34217248433115
IRIDIUM 142             
1 43256U 18030H   26189.52902155  .00000209  00000+0  67577-4 0  9993
2 43256  86.3959 281.4262 0002361  98.8801 261.2663 14.34216980433197
IRIDIUM 150             
1 43257U 18030J   26189.28799939  .00000093  00000+0  26186-4 0  9993
2 43257  86.3963 281.6440 0002247  96.3513 263.7939 14.34219047433188
IRIDIUM 143             
1 43258U 18030K   26189.26897369  .00000152  00000+0  47123-4 0  9998
2 43258  86.3966 281.7443 0002305 100.4783 259.6673 14.34216688433117
IRIDIUM 161             
1 43478U 18047C   26189.45355063  .00000224  00000+0  60601-4 0  9997
2 43478  86.4470  79.5786 0002362  79.1389 281.0078 14.43284008428205
IRIDIUM 152             
1 43479U 18047D   26189.45100632  .00000168  00000+0  52850-4 0  9992
2 43479  86.3945  79.4409 0002184  82.2941 277.8502 14.34218333425530
IRIDIUM 147             
1 43480U 18047E   26189.45733715  .00000161  00000+0  50482-4 0  9990
2 43480  86.3944  79.4438 0002212  89.3614 270.7835 14.34217061425538
IRIDIUM 110             
1 43481U 18047F   26189.39391514  .00000176  00000+0  55783-4 0  9996
2 43481  86.3948  79.5629 0002235  76.5861 283.5584 14.34216900425515
IRIDIUM 162             
1 43482U 18047G   26189.44725200  .00000218  00000+0  58669-4 0  9999
2 43482  86.4469  79.4720 0002208  84.2244 275.9209 14.43282742428190
IRIDIUM 160             
1 43569U 18061A   26189.33975089  .00000116  00000+0  34408-4 0  9993
2 43569  86.3941  47.9505 0002272  85.8368 274.3088 14.34217030416403
IRIDIUM 166             
1 43570U 18061B   26189.36512013  .00000021  00000+0  40989-6 0  9990
2 43570  86.3942  47.8900 0002243  89.2440 270.9013 14.34217891416439
IRIDIUM 158             
1 43571U 18061C   26189.54271239 -.00000147  00000+0 -59385-4 0  9992
2 43571  86.3939  47.8256 0002000  85.1606 274.9819 14.34216992416428
IRIDIUM 165             
1 43572U 18061D   26189.07970015  .00000094  00000+0  26425-4 0  9997
2 43572  86.3944  48.0661 0002181  89.5756 270.5690 14.34219198416387
IRIDIUM 155             
1 43573U 18061E   26189.59979489 -.00000150  00000+0 -60502-4 0  9998
2 43573  86.3941  47.7164 0002116  87.7603 272.3835 14.34216387416421
