OBJECT_NAME,OBJECT_ID,EPOCH,MEAN_MOTION,ECCENTRICITY,INCLINATION,RA_OF_ASC_NODE,ARG_OF_PERICENTER,MEAN_ANOMALY,EPHEMERIS_TYPE,CLASSIFICATION_TYPE,NORAD_CAT_ID,ELEMENT_SET_NO,REV_AT_EPOCH,BSTAR,MEAN_MOTION_DOT,MEAN_MOTION_DDOT
IRIDIUM 135,2017-083A,2026-07-07T17:35:55.100832,14.34218166,.00021818,86.3982,313.4261,93.4057,266.7388,0,U,43070,999,44709,.12348317E-4,.54E-6,0
IRIDIUM 138,2017-083B,2026-07-08T07:36:11.154528,14.34216677,.00020559,86.3997,312.8805,90.3632,269.7799,0,U,43071,999,44716,.44376039E-4,.144E-5,0
IRIDIUM 116,2017-083C,2026-07-08T06:50:30.920640,14.34219419,.00023642,86.3981,313.1811,100.5613,259.5850,0,U,43072,999,44719,.6820091E-4,.211E-5,0
IRIDIUM 130,2017-083D,2026-07-07T21:42:31.061088,14.34215914,.00020058,86.3984,313.6189,107.0486,253.0930,0,U,43073,999,44708,.64866873E-4,.201E-5,0
IRIDIUM 151,2017-083E,2026-07-08T07:08:47.124960,14.34216405,.00022375,86.3981,313.2340,94.3250,265.8202,0,U,43074,999,44716,.12141021E-3,.36E-5,0
IRIDIUM 134,2017-083F,2026-07-08T06:23:07.153728,14.34217007,.00020586,86.3982,313.2557,95.0009,265.1421,0,U,43075,999,44712,-.38260536E-4,-.87E-6,0
IRIDIUM 137,2017-083G,2026-07-08T08:21:51.304608,14.34216831,.00026344,86.3985,313.3144,96.5299,263.6197,0,U,43076,999,44720,.6658151E-4,.206E-5,0
IRIDIUM 141,2017-083H,2026-07-08T09:53:11.067360,14.34218180,.0002184,86.3981,313.1172,92.0440,268.1006,0,U,43077,999,44721,.9854778E-5,.47E-6,0
IRIDIUM 153,2017-083J,2026-07-08T12:05:15.388512,14.34217206,.00021024,86.3963,281.5593,94.1658,265.9778,0,U,43078,999,44833,.67551934E-4,.209E-5,0
IRIDIUM 131,2017-083K,2026-07-07T18:30:43.133184,14.34217670,.00021288,86.3984,313.5723,93.1304,267.0135,0,U,43079,999,44705,-.6820712E-5,.1E-7,0
IRIDIUM 144,2018-030A,2026-07-08T05:32:31.386048,14.34218005,.00023621,86.3961,281.6018,97.5890,262.5574,0,U,43249,999,43315,.13040541E-4,.56E-6,0
IRIDIUM 149,2018-030B,2026-07-08T12:23:31.417440,14.34216761,.00022378,86.3960,281.4494,94.0136,266.1316,0,U,43250,999,43321,.28065939E-4,.98E-6,0
IRIDIUM 157,2018-030C,2026-07-08T12:50:55.494528,14.34216434,.00022437,86.3963,281.4949,93.9113,266.2340,0,U,43251,999,43319,.57645521E-4,.181E-5,0
IRIDIUM 140,2018-030D,2026-07-07T17:12:43.090560,14.34219440,.00022223,86.3962,281.8495,95.8702,264.2747,0,U,43252,999,43313,.42107157E-4,.138E-5,0
IRIDIUM 145,2018-030E,2026-07-08T06:18:11.031552,14.34215909,.00023785,86.3962,281.5932,101.0421,259.1042,0,U,43253,999,43314,.28031275E-4,.98E-6,0
IRIDIUM 146,2018-030F,2026-07-08T12:32:39.267744,14.34217229,.00023107,86.3960,281.4971,97.8920,262.2538,0,U,43254,999,43319,.40439507E-4,.133E-5,0
IRIDIUM 148,2018-030G,2026-07-07T17:21:51.461856,14.34217248,.00023239,86.3961,281.8745,92.9159,267.2303,0,U,43255,999,43311,.50725676E-4,.162E-5,0
IRIDIUM 142,2018-030H,2026-07-08T12:41:47.461920,14.34216980,.00023613,86.3959,281.4262,98.8801,261.2663,0,U,43256,999,43319,.67576877E-4,.209E-5,0
IRIDIUM 150,2018-030J,2026-07-08T06:54:43.147296,14.34219047,.0002247,86.3963,281.6440,96.3513,263.7939,0,U,43257,999,43318,.26186003E-4,.93E-6,0
IRIDIUM 143,2018-030K,2026-07-08T06:27:19.326816,14.34216688,.00023053,86.3966,281.7443,100.4783,259.6673,0,U,43258,999,43311,.47122639E-4,.152E-5,0
IRIDIUM 161,2018-047C,2026-07-08T10:53:06.774432,14.43284008,.0002362,86.4470,79.5786,79.1389,281.0078,0,U,43478,999,42820,.60600514E-4,.224E-5,0
IRIDIUM 152,2018-047D,2026-07-08T10:49:26.946048,14.34218333,.00021841,86.3945,79.4409,82.2941,277.8502,0,U,43479,999,42553,.52849784E-4,.168E-5,0
IRIDIUM 147,2018-047E,2026-07-08T10:58:33.929760,14.34217061,.00022124,86.3944,79.4438,89.3614,270.7835,0,U,43480,999,42553,.50482076E-4,.161E-5,0
IRIDIUM 110,2018-047F,2026-07-08T09:27:14.268096,14.34216900,.00022355,86.3948,79.5629,76.5861,283.5584,0,U,43481,999,42551,.55782645E-4,.176E-5,0
IRIDIUM 162,2018-047G,2026-07-08T10:44:02.572800,14.43282742,.00022086,86.4469,79.4720,84.2244,275.9209,0,U,43482,999,42819,.58668822E-4,.218E-5,0
IRIDIUM 160,2018-061A,2026-07-08T08:09:14.476896,14.34217030,.00022721,86.3941,47.9505,85.8368,274.3088,0,U,43569,999,41640,.34408322E-4,.116E-5,0
IRIDIUM 166,2018-061B,2026-07-08T08:45:46.379232,14.34217891,.00022437,86.3942,47.8900,89.2440,270.9013,0,U,43570,999,41643,.409888E-6,.21E-6,0
IRIDIUM 158,2018-061C,2026-07-08T13:01:30.350496,14.34216992,.00020002,86.3939,47.8256,85.1606,274.9819,0,U,43571,999,41642,-.59384882E-4,-.147E-5,0
IRIDIUM 165,2018-061D,2026-07-08T01:54:46.092960,14.34219198,.00021814,86.3944,48.0661,89.5756,270.5690,0,U,43572,999,41638,.26425295E-4,.94E-6,0
IRIDIUM 155,2018-061E,2026-07-08T14:23:42.278496,14.34216387,.00021168,86.3941,47.7164,87.7603,272.3835,0,U,43573,999,41642,-.60501643E-4,-.15E-5,0
